1 08820U 76039A   03007.91987656 -.00000000  00000-0  10000-3 0  8921
2 08820 109.8364 126.7191 0044280 335.6999  24.1519  6.38664577366829
